{
    "links": {
        "self": "http://www.neowsapp.com/rest/v1/neo/3771015?api_key=iIulBulltgU6a56xZRHN4H3l9WmuAYTsLGpBGhQ2"
    },
    "id": "3771015",
    "neo_reference_id": "3771015",
    "name": "(2017 EY2)",
    "designation": "2017 EY2",
    "nasa_jpl_url": "http://ssd.jpl.nasa.gov/sbdb.cgi?sstr=3771015",
    "absolute_magnitude_h": 21.7,
    "estimated_diameter": {
        "kilometers": {
            "estimated_diameter_min": 0.1214940408,
            "estimated_diameter_max": 0.2716689341
        },
        "meters": {
            "estimated_diameter_min": 121.4940407996,
            "estimated_diameter_max": 271.6689340891
        },
        "miles": {
            "estimated_diameter_min": 0.0754928736,
            "estimated_diameter_max": 0.1688071972
        },
        "feet": {
            "estimated_diameter_min": 398.6025088171,
            "estimated_diameter_max": 891.3023057169
        }
    },
    "is_potentially_hazardous_asteroid": false,
    "close_approach_data": [
        {
            "close_approach_date": "2017-02-19",
            "close_approach_date_full": "2017-Feb-19 09:53",
            "epoch_date_close_approach": 1487497980000,
            "relative_velocity": {
                "kilometers_per_second": "16.7311221477",
                "kilometers_per_hour": "60232.0397316782",
                "miles_per_hour": "37425.8471321642"
            },
            "miss_distance": {
                "astronomical": "0.0726441076",
                "lunar": "28.2585578564",
                "kilometers": "10867403.765010812",
                "miles": "6752691.5731087256"
            },
            "orbiting_body": "Earth"
        },
        {
            "close_approach_date": "2019-10-02",
            "close_approach_date_full": "2019-Oct-02 22:57",
            "epoch_date_close_approach": 1570057020000,
            "relative_velocity": {
                "kilometers_per_second": "15.4977877802",
                "kilometers_per_hour": "55792.0360086131",
                "miles_per_hour": "34667.0014854629"
            },
            "miss_distance": {
                "astronomical": "0.0978747399",
                "lunar": "38.0732738211",
                "kilometers": "14641852.615844013",
                "miles": "9098025.3344448594"
            },
            "orbiting_body": "Earth"
        },
        {
            "close_approach_date": "2059-09-14",
            "close_approach_date_full": "2059-Sep-14 12:41",
            "epoch_date_close_approach": 2830768860000,
            "relative_velocity": {
                "kilometers_per_second": "24.124013622",
                "kilometers_per_hour": "86846.449039137",
                "miles_per_hour": "53963.0060710127"
            },
            "miss_distance": {
                "astronomical": "0.2731447934",
                "lunar": "106.2533246326",
                "kilometers": "40861879.294230058",
                "miles": "25390394.4252004804"
            },
            "orbiting_body": "Earth"
        },
        {
            "close_approach_date": "2111-03-27",
            "close_approach_date_full": "2111-Mar-27 03:16",
            "epoch_date_close_approach": 4456869360000,
            "relative_velocity": {
                "kilometers_per_second": "13.0974681608",
                "kilometers_per_hour": "47150.8853789286",
                "miles_per_hour": "29297.7265289237"
            },
            "miss_distance": {
                "astronomical": "0.0562689286",
                "lunar": "21.8886132254",
                "kilometers": "8417711.865742082",
                "miles": "5230523.6107694516"
            },
            "orbiting_body": "Venus"
        },
        {
            "close_approach_date": "2114-03-04",
            "close_approach_date_full": "2114-Mar-04 00:40",
            "epoch_date_close_approach": 4549567200000,
            "relative_velocity": {
                "kilometers_per_second": "21.191822612",
                "kilometers_per_hour": "76290.5614031388",
                "miles_per_hour": "47403.9880007448"
            },
            "miss_distance": {
                "astronomical": "0.1673998215",
                "lunar": "65.1185305635",
                "kilometers": "25042656.734780205",
                "miles": "15560785.331788629"
            },
            "orbiting_body": "Earth"
        }
    ],
    "orbital_data": {
        "orbit_id": "6",
        "orbit_determination_date": "2017-04-06 08:19:40",
        "first_observation_date": "2017-03-05",
        "last_observation_date": "2017-03-25",
        "data_arc_in_days": 20,
        "observations_used": 79,
        "orbit_uncertainty": "7",
        "minimum_orbit_intersection": ".0732783",
        "jupiter_tisserand_invariant": "3.536",
        "epoch_osculation": "2459000.5",
        "eccentricity": ".6435571894807022",
        "semi_major_axis": "2.010481525485508",
        "inclination": "5.132255242841973",
        "ascending_node_longitude": "95.57118562842967",
        "orbital_period": "1041.234517775784",
        "perihelion_distance": ".7166216854411798",
        "perihelion_argument": "343.9175322970539",
        "aphelion_distance": "3.304341365529836",
        "perihelion_time": "2458803.303964478475",
        "mean_anomaly": "68.17923491375834",
        "mean_motion": ".3457434361367582",
        "equinox": "J2000",
        "orbit_class": {
            "orbit_class_type": "APO",
            "orbit_class_description": "Near-Earth asteroid orbits which cross the Earth’s orbit similar to that of 1862 Apollo",
            "orbit_class_range": "a (semi-major axis) > 1.0 AU; q (perihelion) < 1.017 AU"
        }
    },
    "is_sentry_object": false
}